[{"OBJECT_NAME":"STARLINK-31249","OBJECT_ID":"2024-017N","EPOCH":"2026-03-09T14:42:57.498336","MEAN_MOTION":15.30192085,"ECCENTRICITY":3.18e-5,"INCLINATION":53.1595,"RA_OF_ASC_NODE":204.733,"ARG_OF_PERICENTER":38.2043,"MEAN_ANOMALY":321.8981,"EPHEMERIS_TYPE":0,"CLASSIFICATION_TYPE":"U","NORAD_CAT_ID":58838,"ELEMENT_SET_NO":999,"REV_AT_EPOCH":12004,"BSTAR":-4.8633e-5,"MEAN_MOTION_DOT":-1.798e-5,"MEAN_MOTION_DDOT":0},{"OBJECT_NAME":"OV1-2","OBJECT_ID":"1965-078A","EPOCH":"2026-03-09T03:01:50.580768","MEAN_MOTION":13.00501958,"ECCENTRICITY":0.1131046,"INCLINATION":144.2289,"RA_OF_ASC_NODE":293.9642,"ARG_OF_PERICENTER":92.8937,"MEAN_ANOMALY":280.1442,"EPHEMERIS_TYPE":0,"CLASSIFICATION_TYPE":"U","NORAD_CAT_ID":1613,"ELEMENT_SET_NO":999,"REV_AT_EPOCH":70168,"BSTAR":0.00044752779,"MEAN_MOTION_DOT":4.816e-5,"MEAN_MOTION_DDOT":0}]
